NORAD_CAT_ID,OBJECT_NAME,OBJECT_TYPE,EPOCH,MEAN_MOTION,ECCENTRICITY,INCLINATION,RA_OF_ASC_NODE,ARG_OF_PERICENTER,MEAN_ANOMALY,BSTAR,MEAN_MOTION_DOT,MEAN_MOTION_DDOT,TLE_LINE0,TLE_LINE1,TLE_LINE2,SEMIMAJOR_AXIS,PERIOD,APOGEE,PERIGEE,DECAYED
53899.0,STARLINK-5042,PAYLOAD,2022-11-02 04:00:00,15.73177949,0.0002737,53.2157,63.9515,12.2455,300.4526,-0.00017617,-0.00025254,0.0,0 STARLINK-5042,1 53899U 22119P   22306.16667824 -.00025254  00000-0 -17617-3 0  9997,2 53899  53.2157  63.9515 0002737  12.2455 300.4526 15.73177949  6443,6727.958000000001,91.534,351.664,347.982,0.0
53899.0,STARLINK-5042,PAYLOAD,2022-11-02 14:00:01,15.73157204,0.0002993999999999,53.2159,61.8912,11.1218,142.6884,0.00043358,0.00060567,0.0,0 STARLINK-5042,1 53899U 22119P   22306.58334491  .00060567  00000-0  43358-3 0  9999,2 53899  53.2159  61.8912 0002994  11.1218 142.6884 15.73157204  1308,6728.017,91.536,351.897,347.86800000000005,0.0
53899.0,STARLINK-5042,PAYLOAD,2022-11-02 18:00:02,15.73159007,0.0003115,53.2162,61.0592,12.1625,6.1667,0.00084105,0.00118908,0.0,0 STARLINK-5042,1 53899U 22119P   22306.75002315  .00118908  00000-0  84105-3 0  9993,2 53899  53.2162  61.0592 0003115  12.1625   6.1667 15.73159007  6533,6728.012,91.536,351.973,347.781,0.0
53899.0,STARLINK-5042,PAYLOAD,2022-11-02 22:00:00,15.73237663,0.0003055,53.2158,60.2415,9.4761,233.2048,-1.023e-05,-2.061e-05,0.0,0 STARLINK-5042,1 53899U 22119P   22306.91667824 -.00002061  00000-0 -10230-4 0  9996,2 53899  53.2158  60.2415 0003055   9.4761 233.2048 15.73237663  1307,6727.788000000001,91.531,351.708,347.597,0.0
53899.0,STARLINK-5042,PAYLOAD,2022-11-03 04:00:00,15.73218531,0.0002947,53.2162,59.0027,9.6721,209.7442,0.00017852,0.00024529,0.0,0 STARLINK-5042,1 53899U 22119P   22307.16667824  .00024529  00000-0  17852-3 0  9991,2 53899  53.2162  59.0027 0002947   9.6721 209.7442 15.73218531  6601,6727.842,91.532,351.69,347.725,0.0
53899.0,STARLINK-5042,PAYLOAD,2022-11-03 14:00:01,15.73240582,0.0003251,53.2162,56.9388,9.6947,50.9485,3.3774e-05,4.128e-05,0.0,0 STARLINK-5042,1 53899U 22119P   22307.58334491  .00004128  00000-0  33774-4 0  9993,2 53899  53.2162  56.9388 0003251   9.6947  50.9485 15.73240582  1302,6727.779,91.531,351.832,347.457,0.0
53899.0,STARLINK-5042,PAYLOAD,2022-11-03 22:00:00,15.73463585,0.0002865,53.2169,55.2787,350.5689,159.0335,-0.0067378,-0.00864672,0.0,0 STARLINK-5042,1 53899U 22119P   22307.91667824 -.00864672  00000-0 -67378-2 0  9994,2 53899  53.2169  55.2787 0002865 350.5689 159.0335 15.73463585  6721,6727.144,91.518,350.936,347.081,0.0
53899.0,STARLINK-5042,PAYLOAD,2022-11-04 06:00:00,15.7304749,0.0003074,53.2173,53.6141,298.4043,300.0071,-0.0077696,-0.00982888,0.0,0 STARLINK-5042,1 53899U 22119P   22308.25001157 -.00982888  00000-0 -77696-2 0  9997,2 53899  53.2173  53.6141 0003074 298.4043 300.0071 15.73047490  6772,6728.33,91.542,352.26300000000015,348.12699999999984,0.0
53899.0,STARLINK-5042,PAYLOAD,2022-11-04 14:00:01,15.72347547,0.0005501,53.2172,51.9685,277.196,49.5335,-0.0094206,-0.01139333,0.0,0 STARLINK-5042,1 53899U 22119P   22308.58334491 -.01139333  00000-0 -94206-2 0  9999,2 53899  53.2172  51.9685 0005501 277.1960  49.5335 15.72347547  6823,6730.3269999999975,91.583,355.894,348.48900000000015,0.0
53899.0,STARLINK-5042,PAYLOAD,2022-11-04 22:00:01,15.71493741,0.0006974,53.2168,50.3245,271.1953,143.0094,-0.0091956,-0.01080046,0.0,0 STARLINK-5042,1 53899U 22119P   22308.91668981 -.01080046  00000-0 -91956-2 0  9995,2 53899  53.2168  50.3245 0006974 271.1953 143.0094 15.71493741  1301,6732.764,91.633,359.325,349.934,0.0
53899.0,STARLINK-5042,PAYLOAD,2022-11-05 12:00:00,15.69803617,0.0001537,53.2173,47.4484,343.4709,131.3971,-0.0064917,-0.0072473,0.0,0 STARLINK-5042,1 53899U 22119P   22309.50001157 -.00724730  00000-0 -64917-2 0  9998,2 53899  53.2173  47.4484 0001537 343.4709 131.3971 15.69803617  6977,6737.596,91.731,360.496,358.425,0.0
53899.0,STARLINK-5042,PAYLOAD,2022-11-05 14:00:01,15.69840025,0.0001359,53.2175,47.0359,2.0834,223.9897,-0.0094981,-0.01041197,0.0,0 STARLINK-5042,1 53899U 22119P   22309.58335648 -.01041197  00000-0 -94981-2 0  9995,2 53899  53.2175  47.0359 0001359   2.0834 223.9897 15.69840025  1306,6737.4919999999975,91.729,360.272,358.441,0.0
53899.0,STARLINK-5042,PAYLOAD,2022-11-05 22:00:01,15.68820347,0.0006307999999999,53.2166,45.3957,272.8644,37.7722,-0.0070682,-0.00756251,0.0,0 STARLINK-5042,1 53899U 22119P   22309.91668981 -.00756251  00000-0 -70682-2 0  9996,2 53899  53.2166  45.3957 0006308 272.8644  37.7722 15.68820347  7034,6740.411,91.789,366.528,358.024,0.0
53899.0,STARLINK-5042,PAYLOAD,2022-11-06 06:00:00,15.68249114,7.890000000000001e-05,53.2177,43.7546,36.8984,357.0366,-0.010646,-0.01086706,0.0,0 STARLINK-5042,1 53899U 22119P   22310.25001157 -.01086706  00000-0 -10646-1 0  9996,2 53899  53.2177  43.7546 0000789  36.8984 357.0366 15.68249114  7099,6742.047,91.822,364.444,363.381,0.0
53899.0,STARLINK-5042,PAYLOAD,2022-11-06 14:00:01,15.66960222,0.0004853,53.2179,42.1207,276.1996,200.4738,-0.0041124,-0.00423955,0.0,0 STARLINK-5042,1 53899U 22119P   22310.58334491 -.00423955  00000-0 -41124-2 0  9998,2 53899  53.2179  42.1207 0004853 276.1996 200.4738 15.66960222  7144,6745.744000000002,91.898,370.883,364.335,0.0
53899.0,STARLINK-5042,PAYLOAD,2022-11-06 22:00:00,15.65925696,0.0004647,53.2153,40.4846,277.6732,280.66,-0.0012959,-0.00133018,0.0,0 STARLINK-5042,1 53899U 22119P   22310.91667824 -.00133018  00000-0 -12959-2 0  9996,2 53899  53.2153  40.4846 0004647 277.6732 280.6600 15.65925696  7199,6748.715,91.958,373.716,367.444,0.0
53899.0,STARLINK-5042,PAYLOAD,2022-11-07 06:00:00,15.65832291,0.0006588,53.2174,38.8504,269.809,8.7004,-0.012179,-0.01143276,0.0,0 STARLINK-5042,1 53899U 22119P   22311.25001157 -.01143276  00000-0 -12179-1 0  9996,2 53899  53.2174  38.8504 0006588 269.8090   8.7004 15.65832291  7241,6748.983,91.964,375.294,366.402,0.0
53899.0,STARLINK-5042,PAYLOAD,2022-11-07 14:00:01,15.6482164,9.58e-05,53.2169,37.2225,28.399,329.7732,-0.0093853,-0.00854174,0.0,0 STARLINK-5042,1 53899U 22119P   22311.58334491 -.00854174  00000-0 -93853-2 0  9996,2 53899  53.2169  37.2225 0000958  28.3990 329.7732 15.64821640  7294,6751.889,92.023,374.401,373.107,0.0
53899.0,STARLINK-5042,PAYLOAD,2022-11-07 22:00:00,15.64201478,0.0001373,53.2175,35.5922,42.4882,34.1884,-0.012962,-0.01137307,0.0,0 STARLINK-5042,1 53899U 22119P   22311.91667824 -.01137307  00000-0 -12962-1 0  9996,2 53899  53.2175  35.5922 0001373  42.4882  34.1884 15.64201478  7358,6753.6730000000025,92.06,376.466,374.611,0.0
53899.0,STARLINK-5042,PAYLOAD,2022-11-08 06:00:00,15.6338585,0.0006565,53.2178,33.9648,271.1001,243.1933,-0.013322,-0.01134662,0.0,0 STARLINK-5042,1 53899U 22119P   22312.25001157 -.01134662  00000-0 -13322-1 0  9997,2 53899  53.2178  33.9648 0006565 271.1001 243.1933 15.63385850  7409,6756.022,92.108,382.322,373.452,0.0
53899.0,STARLINK-5042,PAYLOAD,2022-11-08 12:00:00,15.61376249,0.000104,53.2158,32.7477,26.24,96.4856,0.0079388999999999,0.00745128,0.0,0 STARLINK-5042,1 53899U 22119P   22312.50001157  .00745128  00000-0  79389-2 0  9993,2 53899  53.2158  32.7477 0001040  26.2400  96.4856 15.61376249  7446,6761.818,92.226,384.386,382.98,0.0
53899.0,STARLINK-5042,PAYLOAD,2022-11-08 14:00:01,15.621248499999998,0.0001593,53.2182,32.3427,54.1806,176.9692,-0.005887,-0.00495552,0.0,0 STARLINK-5042,1 53899U 22119P   22312.58334491 -.00495552  00000-0 -58870-2 0  9998,2 53899  53.2182  32.3427 0001593  54.1806 176.9692 15.62124850  1308,6759.656999999997,92.182,382.599,380.446,0.0
53899.0,STARLINK-5042,PAYLOAD,2022-11-08 22:00:00,15.61761481,0.0001394,53.2174,30.7181,41.8349,264.7562,-0.014295,-0.01138888,0.0,0 STARLINK-5042,1 53899U 22119P   22312.91667824 -.01138888  00000-0 -14295-1 0  9993,2 53899  53.2174  30.7181 0001394  41.8349 264.7562 15.61761481  7508,6760.706,92.204,383.513,381.628,0.0
53899.0,STARLINK-5042,PAYLOAD,2022-11-09 14:00:01,15.59229171,0.0001708,53.2186,27.4796,30.0313,65.4304,0.001631,0.00132008,0.0,0 STARLINK-5042,1 53899U 22119P   22313.58334491  .00132008  00000-0  16310-2 0  9994,2 53899  53.2186  27.4796 0001708  30.0313  65.4304 15.59229171  7610,6768.024,92.353,391.045,388.733,0.0
53899.0,STARLINK-5042,PAYLOAD,2022-11-09 22:00:01,15.59310628,0.000175,53.2173,25.862,35.5051,132.2684,-0.015464,-0.01122361,0.0,0 STARLINK-5042,1 53899U 22119P   22313.91668981 -.01122361  00000-0 -15464-1 0  9997,2 53899  53.2173  25.8620 0001750  35.5051 132.2684 15.59310628  7667,6767.788000000001,92.349,390.837,388.469,0.0
53899.0,STARLINK-5042,PAYLOAD,2022-11-10 06:00:00,15.57686488,0.0001363,53.2169,24.2451,45.7615,194.1189,0.00033233,0.00024636,0.0,0 STARLINK-5042,1 53899U 22119P   22314.25001157  .00024636  00000-0  33233-3 0  9990,2 53899  53.2169  24.2451 0001363  45.7615 194.1189 15.57686488  7717,6772.4919999999975,92.445,395.28,393.4330000000001,0.0
53899.0,STARLINK-5042,PAYLOAD,2022-11-10 14:00:01,15.56779234,0.0001258,53.2164,22.6344,76.3755,234.34,0.0019221,0.00142125,0.0,0 STARLINK-5042,1 53899U 22119P   22314.58334491  .00142125  00000-0  19221-2 0  9990,2 53899  53.2164  22.6344 0001258  76.3755 234.3400 15.56779234  1306,6775.123000000001,92.499,397.84,396.135,0.0
53899.0,STARLINK-5042,PAYLOAD,2022-11-10 20:00:01,15.57081142,0.0001199,53.2174,21.4262,67.0456,205.617,-0.0170449999999999,-0.01135112,0.0,0 STARLINK-5042,1 53899U 22119P   22314.83334491 -.01135112  00000-0 -17045-1 0  9990,2 53899  53.2174  21.4262 0001199  67.0456 205.6170 15.57081142  7803,6774.246999999999,92.481,396.924,395.3,0.0
53899.0,STARLINK-5042,PAYLOAD,2022-11-10 22:00:00,15.56742041,0.0001633,53.2176,21.0233,36.2906,343.7923,-0.01414,-0.00933082,0.0,0 STARLINK-5042,1 53899U 22119P   22314.91667824 -.00933082  00000-0 -14140-1 0  9992,2 53899  53.2176  21.0233 0001633  36.2906 343.7923 15.56742041  1300,6775.23,92.501,398.202,395.989,0.0
